ONEWEB-0687             
1 61595U 24188B   24365.10279794  .00006538  00000+0  79967-3 0  9990
2 61595  86.5781 140.0842 0003735   2.8216 357.3028 14.83102222 13477
ONEWEB-0688             
1 61596U 24188C   24365.10615515  .00006702  00000+0  81984-3 0  9991
2 61596  86.5791 140.1002 0003437   8.3407 351.7872 14.83100892 13476
ONEWEB-0689             
1 61597U 24188D   24365.64621447  .00008066  00000+0  98700-3 0  9991
2 61597  86.5723 139.8165 0002276  48.7514 311.3905 14.83107807 11676
ONEWEB-0690             
1 61598U 24188E   24365.36102306  .00006879  00000+0  84196-3 0  9993
2 61598  86.5777 139.9585 0005032 352.1592   7.9551 14.83075772 13519
ONEWEB-0691             
1 61599U 24188F   24365.10074664  .00006528  00000+0  79874-3 0  9999
2 61599  86.5812 140.1111 0004405   0.6510 359.4718 14.83083815 13479
ONEWEB-0692             
1 61600U 24188G   24365.37949627  .00004652  00000+0  56823-3 0  9996
2 61600  86.5746 139.9582 0003160  44.2138 315.9337 14.83096063 13511
ONEWEB-0693             
1 61601U 24188H   24365.64629475  .00007862  00000+0  96193-3 0  9993
2 61601  86.5708 139.8053 0002500  38.4660 321.6741 14.83111848 11761
ONEWEB-0695             
1 61602U 24188J   24365.37910502  .00007421  00000+0  90817-3 0  9996
2 61602  86.5764 139.9730 0002274  42.3232 317.8166 14.83094093 13519
